{"type":"FeatureCollection","features":[{"type":"Feature","id":6,"geometry":{"type":"Polygon","coordinates":[[[-65.3785,-10.4129],[-65.391,-10.3812],[-65.4531,-10.4171],[-65.5021,-10.4916],[-65.63,-10.5621],[-65.7279,-10.5669],[-65.7019,-10.6514],[-65.7335,-10.7069],[-65.8201,-10.7442],[-65.88,-10.6934],[-65.9056,-10.7408],[-65.8518,-10.7844],[-65.854,-10.8339],[-65.9758,-10.797],[-66.0763,-10.8517],[-66.0131,-10.8637],[-66.0579,-10.9866],[-66.1066,-11.0228],[-66.0934,-11.0506],[-66.1439,-11.0461],[-66.1264,-11.1183],[-66.1574,-11.1344],[-66.1938,-11.0749],[-66.2147,-11.1186],[-66.1858,-11.1818],[-66.267,-11.2172],[-66.2514,-11.2661],[-66.2776,-11.2777],[-66.2281,-11.3404],[-66.3109,-11.3158],[-66.3382,-11.3311],[-66.321,-11.3612],[-66.4403,-11.3764],[-66.4987,-11.4423],[-66.5543,-11.4144],[-66.6374,-11.4255],[-66.6395,-11.4733],[-66.7053,-11.4465],[-66.734,-11.4842],[-66.6959,-11.4972],[-66.6758,-11.5617],[-66.7628,-11.5913],[-66.7128,-11.6105],[-66.7358,-11.6548],[-66.7117,-11.6818],[-66.7813,-11.745],[-66.7719,-11.6966],[-66.8167,-11.6973],[-66.8398,-11.7664],[-66.9105,-11.7471],[-66.9179,-11.7806],[-66.8804,-11.7739],[-66.8567,-11.8226],[-66.9797,-11.9066],[-66.9059,-11.9529],[-66.9107,-12.0525],[-66.8731,-12.1063],[-66.9253,-12.1615],[-66.8869,-12.2512],[-66.9486,-12.305],[-66.8973,-12.3692],[-66.9698,-12.4186],[-66.9327,-12.4722],[-66.9663,-12.493],[-66.9174,-12.5338],[-66.9769,-12.5927],[-66.9265,-12.6256],[-66.9753,-12.6569],[-66.9394,-12.685],[-66.9713,-12.6903],[-66.9533,-12.7281],[-66.9831,-12.7333],[-66.9478,-12.7903],[-66.9834,-12.7831],[-66.9831,-12.8097],[-66.9452,-12.8346],[-67.0348,-12.8924],[-66.9981,-12.9166],[-67.0702,-12.9944],[-67.0467,-13.0513],[-67.096,-13.0255],[-67.1064,-13.0685],[-67.1481,-13.0529],[-67.1344,-13.0922],[-67.1874,-13.1258],[-67.1603,-13.1664],[-67.2256,-13.1684],[-67.1979,-13.1953],[-67.2667,-13.2096],[-67.2512,-13.2583],[-67.2954,-13.2505],[-67.2664,-13.2928],[-67.2861,-13.3041],[-67.2941,-13.2725],[-67.357,-13.3479],[-67.3287,-13.3658],[-67.3902,-13.3967],[-67.3959,-13.4377],[-67.3552,-13.4462],[-67.3875,-13.4781],[-67.3478,-13.4715],[-67.4044,-13.5295],[-67.3534,-13.5696],[-67.3633,-13.609],[-67.3882,-13.6035],[-67.3635,-13.6382],[-67.4348,-13.6576],[-67.4266,-13.7345],[-67.4588,-13.7127],[-67.4504,-13.7384],[-67.5252,-13.7832],[-67.4818,-13.7945],[-67.5159,-13.8327],[-67.4595,-13.846],[-67.5118,-13.9062],[-67.4847,-13.9151],[-67.5326,-13.9599],[-67.5484,-14.0316],[-67.494,-14.0648],[-67.5504,-14.0966],[-67.5048,-14.1124],[-67.5343,-14.1921],[-67.5186,-14.2562],[-67.4726,-14.2882],[-67.5621,-14.3408],[-67.5363,-14.3488],[-67.5586,-14.4089],[-67.4816,-14.5036],[-67.5384,-14.5962],[-67.5278,-14.6535],[-67.3926,-14.795],[-67.4315,-14.894],[-67.4164,-14.9892],[-67.335,-15.0448],[-67.2903,-15.0271],[-67.2379,-15.0586],[-67.2385,-15.1146],[-67.1909,-15.1383],[-67.1357,-15.2747],[-67.0814,-15.3145],[-67.1183,-15.3933],[-66.9621,-15.507],[-66.8996,-15.6041],[-66.9069,-15.6402],[-66.7948,-15.786],[-66.8075,-15.828],[-66.6156,-15.9517],[-66.5063,-15.9852],[-66.3393,-16.1172],[-66.1697,-16.3628],[-65.8617,-16.4917],[-65.5947,-16.4602],[-65.2399,-16.3688],[-65.1162,-16.188],[-65.0717,-15.9057],[-64.9583,-15.801],[-63.3806,-15.8839],[-63.4442,-15.8248],[-63.4293,-15.7491],[-63.5122,-15.6655],[-63.574,-15.6653],[-63.5829,-15.634],[-63.642,-15.6245],[-63.6566,-15.5787],[-63.6927,-15.5812],[-63.6804,-15.4973],[-63.788,-15.436],[-63.7757,-15.3965],[-63.8377,-15.3426],[-63.8585,-15.227],[-63.8952,-15.21],[-63.9014,-15.1664],[-63.9436,-15.16],[-63.9636,-15.069],[-63.9178,-15.0327],[-63.9469,-14.8771],[-63.9264,-14.7721],[-63.975,-14.7284],[-63.5612,-14.2959],[-61.5279,-13.5298],[-61.5779,-13.4872],[-61.6487,-13.5189],[-61.6947,-13.4981],[-61.7579,-13.5403],[-61.7716,-13.5161],[-61.8563,-13.5376],[-61.8969,-13.4272],[-61.9689,-13.4077],[-61.9747,-13.3681],[-62.0003,-13.3736],[-62.0172,-13.3277],[-62.1128,-13.2604],[-62.1164,-13.159],[-62.1509,-13.1608],[-62.1688,-13.113],[-62.1922,-13.1527],[-62.2172,-13.1105],[-62.2755,-13.1565],[-62.4156,-13.1278],[-62.4744,-13.0587],[-62.5003,-13.0821],[-62.6087,-13.0431],[-62.5999,-13.0147],[-62.6304,-13.0143],[-62.6508,-12.9645],[-62.7326,-13.022],[-62.7804,-13.0082],[-62.8946,-12.8567],[-63.0108,-12.8357],[-63.0499,-12.7343],[-63.0809,-12.7239],[-63.0623,-12.6864],[-63.1569,-12.6144],[-63.1637,-12.6409],[-63.1934,-12.6235],[-63.1946,-12.6535],[-63.2448,-12.6618],[-63.2412,-12.6906],[-63.3706,-12.6596],[-63.4421,-12.6051],[-63.4369,-12.5645],[-63.5024,-12.5653],[-63.5573,-12.5048],[-63.785,-12.4289],[-63.8349,-12.4641],[-63.8872,-12.4457],[-63.899,-12.5033],[-63.9512,-12.5306],[-64.0602,-12.49],[-64.123,-12.5061],[-64.1379,-12.4783],[-64.1639,-12.5139],[-64.1743,-12.4671],[-64.2306,-12.4539],[-64.2929,-12.5019],[-64.2949,-12.4579],[-64.4058,-12.4465],[-64.5087,-12.3608],[-64.5135,-12.2234],[-64.5517,-12.2394],[-64.7027,-12.1822],[-64.7086,-12.0859],[-64.7538,-12.1573],[-64.7765,-12.0901],[-64.8417,-12.1097],[-64.8105,-12.0587],[-64.8351,-12.0129],[-64.9213,-12.028],[-64.9469,-11.9942],[-64.9785,-12.0191],[-65.0364,-11.9957],[-65.0179,-11.8964],[-65.0737,-11.8658],[-65.0828,-11.7133],[-65.1842,-11.7212],[-65.1853,-11.7565],[-65.257,-11.7141],[-65.2245,-11.6647],[-65.2132,-11.5268],[-65.3101,-11.491],[-65.3336,-11.3397],[-65.2901,-11.3208],[-65.347,-11.3025],[-65.3619,-11.2243],[-65.3151,-11.1933],[-65.3512,-11.1873],[-65.3622,-11.1429],[-65.2833,-11.09],[-65.3005,-11.0295],[-65.2507,-10.9841],[-65.274,-10.8748],[-65.3619,-10.7918],[-65.3492,-10.6701],[-65.4061,-10.6375],[-65.4305,-10.4823],[-65.3785,-10.4129]]]},"properties":{"code":8,"name":"Beni"}},{"type":"Feature","id":7,"geometry":{"type":"Polygon","coordinates":[[[-65.672,-18.3513],[-65.6941,-18.3524],[-65.6844,-18.4177],[-65.6246,-18.4612],[-65.6241,-18.501],[-65.4958,-18.5356],[-65.4862,-18.5908],[-65.3813,-18.6409],[-65.4191,-18.6632],[-65.4059,-18.7749],[-65.4438,-18.8334],[-65.3977,-18.9191],[-65.4138,-18.9454],[-65.4808,-18.926],[-65.5873,-18.9977],[-65.546,-19.0815],[-65.4071,-19.1431],[-65.3699,-19.2557],[-65.3105,-19.3064],[-65.1533,-19.3758],[-64.9128,-19.3547],[-64.8231,-19.4835],[-64.8428,-19.5896],[-64.787,-19.6332],[-64.7144,-19.7796],[-64.8508,-19.9811],[-64.8908,-19.9636],[-64.9163,-19.8564],[-64.9751,-19.8595],[-65.0347,-19.7911],[-65.078,-19.9956],[-65.1521,-20.0147],[-65.2223,-19.9357],[-65.2693,-20.0045],[-65.305,-20.0094],[-65.2326,-20.1405],[-65.3016,-20.1778],[-65.3157,-20.2251],[-65.2213,-20.3118],[-65.2692,-20.503],[-65.3882,-20.5573],[-65.3524,-20.6239],[-65.3678,-20.7568],[-65.3388,-20.8387],[-65.3907,-20.8976],[-65.4025,-21.1603],[-65.4418,-21.1811],[-65.4371,-21.4266],[-65.4077,-21.432],[-65.3898,-21.515],[-65.2462,-21.4792],[-65.1884,-21.1604],[-65.1923,-20.9842],[-65.1631,-20.9452],[-65.1132,-20.9818],[-65.07,-20.9589],[-65.0271,-21.0276],[-64.9342,-21.0267],[-64.8536,-21.1064],[-64.7978,-21.0947],[-64.761,-20.9802],[-64.6989,-20.931],[-64.6051,-20.9819],[-64.5272,-21.0976],[-64.4571,-21.0831],[-64.3643,-21.1428],[-64.2302,-21.1521],[-64.1891,-21.0912],[-64.1732,-20.8859],[-64.0608,-20.9542],[-64.0064,-20.9467],[-63.9987,-21.0064],[-62.2613,-20.9925],[-62.2666,-20.5627],[-62.1794,-20.4426],[-63.3576,-20.4601],[-63.3571,-20.3925],[-63.4641,-20.4535],[-63.6842,-20.4651],[-63.7076,-20.2543],[-63.6808,-20.2084],[-63.7323,-20.0272],[-63.6922,-19.5944],[-63.7456,-19.175],[-63.7052,-19.0431],[-63.9017,-19.0317],[-63.9195,-19.1833],[-64.0099,-19.1798],[-64.0685,-19.0053],[-64.1846,-18.9612],[-64.2132,-18.8824],[-64.2901,-18.8231],[-64.3109,-18.6705],[-64.346,-18.6628],[-64.3613,-18.615],[-64.5579,-18.6745],[-64.6968,-18.5293],[-64.7795,-18.527],[-64.8399,-18.4835],[-64.9997,-18.5588],[-65.0478,-18.6103],[-65.0425,-18.6818],[-65.1466,-18.6059],[-65.2434,-18.6109],[-65.2439,-18.5078],[-65.2865,-18.5025],[-65.3333,-18.4228],[-65.5064,-18.3868],[-65.5469,-18.4046],[-65.672,-18.3513]]]},"properties":{"code":1,"name":"Chuquisaca"}},{"type":"Feature","id":8,"geometry":{"type":"Polygon","coordinates":[[[-66.8041,-15.7839],[-66.8605,-15.7831],[-66.9074,-15.8442],[-66.8688,-15.9354],[-66.9208,-15.9983],[-66.9205,-16.0914],[-66.8443,-16.195],[-66.8499,-16.2516],[-66.8004,-16.2956],[-66.7888,-16.4845],[-66.7321,-16.5901],[-66.7587,-16.6938],[-66.7412,-16.7552],[-66.833,-16.8397],[-66.924,-16.8358],[-67.0057,-16.9549],[-66.9807,-17.0468],[-66.8839,-17.1566],[-66.8875,-17.29],[-66.8426,-17.3175],[-66.8769,-17.4168],[-66.8157,-17.5116],[-66.8777,-17.5415],[-66.892,-17.6661],[-66.7136,-17.8846],[-66.8414,-18.0517],[-66.8157,-18.1113],[-66.761,-18.1359],[-66.6369,-18.1189],[-66.6011,-18.0823],[-66.5234,-18.0895],[-66.5335,-18.0584],[-66.4449,-17.9786],[-66.1672,-17.9271],[-66.092,-17.8082],[-65.934,-17.9921],[-65.8451,-17.9742],[-65.638,-18.1374],[-65.5648,-18.2342],[-65.5023,-18.2573],[-65.4555,-18.3497],[-65.3316,-18.4242],[-65.3318,-18.4577],[-65.2972,-18.4533],[-65.28,-18.5083],[-65.2447,-18.5068],[-65.2426,-18.6115],[-65.1466,-18.6059],[-65.0425,-18.6818],[-65.0478,-18.6103],[-64.9997,-18.5588],[-64.8387,-18.4835],[-64.7795,-18.527],[-64.6968,-18.5293],[-64.5579,-18.6745],[-64.3621,-18.6149],[-64.3292,-18.6654],[-64.2809,-18.5999],[-64.2884,-18.5378],[-64.3056,-18.4957],[-64.4276,-18.4181],[-64.4337,-18.3363],[-64.4854,-18.2936],[-64.5222,-18.1604],[-64.6157,-18.0934],[-64.6919,-18.0988],[-64.8106,-17.9447],[-64.7866,-17.9333],[-64.8064,-17.8931],[-64.7562,-17.7501],[-64.6398,-17.7082],[-64.5921,-17.619],[-64.6025,-17.5574],[-64.5502,-17.5658],[-64.5198,-17.534],[-64.4323,-17.56],[-64.4058,-17.4533],[-64.255,-17.4265],[-64.2341,-17.3737],[-64.2473,-17.302],[-64.2838,-17.2647],[-64.3402,-17.2638],[-64.3362,-17.208],[-64.3712,-17.2299],[-64.3573,-17.1871],[-64.3984,-17.1765],[-64.3946,-17.1407],[-64.4284,-17.1594],[-64.4354,-17.13],[-64.487,-17.1354],[-64.5003,-17.0909],[-64.5497,-17.0873],[-64.5188,-17.0568],[-64.5533,-17.0702],[-64.5699,-17.0325],[-64.5927,-17.0538],[-64.6195,-17.0145],[-64.6393,-17.0372],[-64.629,-17.0049],[-64.7074,-17.0016],[-64.6745,-16.9707],[-64.7467,-16.9423],[-64.7203,-16.9264],[-64.75,-16.9174],[-64.7322,-16.8881],[-64.7608,-16.8907],[-64.737,-16.8681],[-64.7704,-16.8731],[-64.7396,-16.8551],[-64.7894,-16.8447],[-64.7789,-16.805],[-64.8166,-16.7715],[-64.7964,-16.7644],[-64.8357,-16.7731],[-64.8318,-16.7251],[-64.7836,-16.7445],[-64.8101,-16.7],[-64.7798,-16.6561],[-64.758,-16.6789],[-64.7905,-16.6312],[-64.7486,-16.5901],[-64.7508,-16.5126],[-64.7112,-16.5363],[-64.6879,-16.485],[-64.7111,-16.4747],[-64.6733,-16.474],[-64.6989,-16.4176],[-64.6563,-16.3748],[-64.6927,-16.3788],[-64.7088,-16.3464],[-64.6735,-16.3651],[-64.644,-16.3208],[-64.6803,-16.3213],[-64.6467,-16.2962],[-64.6928,-16.2931],[-64.67,-16.2084],[-64.7082,-16.1859],[-64.6817,-16.1814],[-64.6634,-16.0971],[-64.6888,-16.1164],[-64.7272,-16.0812],[-64.6901,-16.0808],[-64.716,-16.0588],[-64.7025,-16.0287],[-64.7327,-16.0345],[-64.7015,-16.0116],[-64.7341,-16.0027],[-64.7095,-15.9675],[-64.74,-15.9816],[-64.7268,-15.9512],[-64.7562,-15.9502],[-64.7297,-15.9177],[-64.7459,-15.8912],[-64.723,-15.8968],[-64.7512,-15.8666],[-64.7297,-15.802],[-64.9583,-15.801],[-65.0412,-15.858],[-65.0807,-15.931],[-65.1162,-16.188],[-65.2399,-16.3688],[-65.5947,-16.4602],[-65.8617,-16.4917],[-66.1697,-16.3628],[-66.3393,-16.1172],[-66.5063,-15.9852],[-66.6156,-15.9517],[-66.8075,-15.828],[-66.8041,-15.7839]]]},"properties":{"code":3,"name":"Cochabamba"}},{"type":"Feature","id":9,"geometry":{"type":"MultiPolygon","coordinates":[[[[-68.7005,-16.3579],[-68.7012,-16.3528],[-68.7048,-16.3572],[-68.7005,-16.3579]]],[[[-68.6876,-16.3512],[-68.6926,-16.3467],[-68.6933,-16.352],[-68.6876,-16.3512]]],[[[-68.7392,-16.3449],[-68.7448,-16.3488],[-68.73,-16.3654],[-68.7392,-16.3449]]],[[[-68.7535,-16.3301],[-68.7587,-16.3238],[-68.7586,-16.3296],[-68.7535,-16.3301]]],[[[-68.7696,-16.293],[-68.7765,-16.3088],[-68.7467,-16.3088],[-68.7696,-16.293]]],[[[-68.8234,-16.2761],[-68.8235,-16.2957],[-68.804,-16.3024],[-68.8234,-16.2761]]],[[[-68.8471,-16.2703],[-68.8512,-16.2743],[-68.8507,-16.2797],[-68.8471,-16.2703]]],[[[-68.8685,-16.2678],[-68.8709,-16.2748],[-68.8663,-16.2715],[-68.8685,-16.2678]]],[[[-68.6032,-16.2247],[-68.5927,-16.2478],[-68.5884,-16.2391],[-68.6032,-16.2247]]],[[[-68.8654,-16.0733],[-68.862,-16.069],[-68.8651,-16.0694],[-68.8654,-16.0733]]],[[[-69.1315,-16.0555],[-69.0749,-16.1471],[-69.1235,-16.1855],[-69.1024,-16.2256],[-68.9389,-16.1945],[-68.8919,-16.2601],[-68.8365,-16.2726],[-68.8576,-16.2159],[-69.1315,-16.0555]]],[[[-69.1382,-16.0496],[-69.1387,-16.0507],[-69.1376,-16.0514],[-69.1382,-16.0496]]],[[[-69.0696,-16.0382],[-69.0818,-16.0317],[-69.0613,-16.048],[-69.0696,-16.0382]]],[[[-69.2244,-15.9939],[-69.2161,-15.9985],[-69.2143,-15.9978],[-69.2244,-15.9939]]],[[[-69.1765,-15.9863],[-69.1785,-15.9852],[-69.1761,-15.9874],[-69.1765,-15.9863]]],[[[-69.1928,-15.9816],[-69.2143,-15.9882],[-69.1867,-16.0328],[-69.141,-16.0526],[-69.1928,-15.9816]]],[[[-69.1905,-15.977],[-69.1922,-15.9758],[-69.1906,-15.9786],[-69.1905,-15.977]]],[[[-69.2076,-15.9686],[-69.2075,-15.9711],[-69.2063,-15.9698],[-69.2076,-15.9686]]],[[[-69.231,-15.9665],[-69.2308,-15.9677],[-69.2288,-15.9685],[-69.231,-15.9665]]],[[[-69.2177,-15.9547],[-69.2181,-15.9565],[-69.2156,-15.9583],[-69.2177,-15.9547]]],[[[-69.2892,-15.7464],[-69.2891,-15.7444],[-69.2901,-15.7429],[-69.2892,-15.7464]]],[[[-69.2119,-15.7135],[-69.212,-15.7139],[-69.2118,-15.7138],[-69.2119,-15.7135]]],[[[-69.2115,-15.7125],[-69.2115,-15.712],[-69.2117,-15.7123],[-69.2115,-15.7125]]],[[[-69.2112,-15.7116],[-69.2114,-15.709],[-69.2118,-15.7111],[-69.2112,-15.7116]],[[-69.3368,-15.6783],[-69.3407,-15.6713],[-69.3202,-15.6944],[-69.3368,-15.6783]]],[[[-67.9963,-11.8497],[-67.9776,-11.9359],[-68.0983,-12.0348],[-68.2366,-12.0128],[-68.2403,-12.1807],[-68.4041,-12.2542],[-68.4046,-12.3636],[-68.4572,-12.4174],[-68.5882,-12.3969],[-68.5586,-12.4543],[-68.6546,-12.4979],[-68.6568,-12.5363],[-68.683,-12.5234],[-68.6742,-12.5523],[-68.7417,-12.6341],[-68.7124,-12.6806],[-68.7286,-12.7135],[-68.8047,-12.7558],[-68.8344,-12.8582],[-68.8705,-12.868],[-68.8591,-12.9477],[-68.8839,-12.956],[-68.8486,-13.0472],[-68.8786,-13.137],[-68.8449,-13.2469],[-68.8677,-13.358],[-68.9162,-13.5206],[-68.9527,-13.5355],[-68.9531,-13.6049],[-69.0044,-13.6225],[-68.9951,-13.6526],[-69.0451,-13.6433],[-69.0679,-13.6857],[-68.9756,-13.7612],[-68.9795,-13.9758],[-68.8825,-14.0594],[-68.8342,-14.1441],[-68.8565,-14.164],[-68.8277,-14.2298],[-68.9852,-14.2374],[-69.0019,-14.3847],[-69.1499,-14.516],[-69.1492,-14.5763],[-69.2302,-14.6032],[-69.2589,-14.6886],[-69.2327,-14.7551],[-69.3586,-14.8164],[-69.3548,-14.98],[-69.2771,-15.1115],[-69.1901,-15.1588],[-69.1199,-15.259],[-69.1759,-15.2611],[-69.2599,-15.3742],[-69.2403,-15.4604],[-69.29,-15.437],[-69.3089,-15.4638],[-69.3309,-15.537],[-69.2785,-15.5702],[-69.3046,-15.6062],[-69.2547,-15.6767],[-69.1879,-15.6563],[-69.1461,-15.6888],[-69.1815,-15.71],[-69.1039,-15.7171],[-69.0095,-15.8638],[-68.8955,-15.9391],[-68.7216,-15.9437],[-68.7152,-15.9732],[-68.7527,-15.9792],[-68.74,-16.0174],[-68.8183,-16.0107],[-68.8582,-16.0757],[-68.8649,-16.047],[-68.9103,-16.0722],[-68.8436,-16.1663],[-68.8493,-16.2158],[-68.8264,-16.2235],[-68.8045,-16.1803],[-68.6585,-16.2201],[-68.6037,-16.1998],[-68.5671,-16.2674],[-68.6015,-16.2825],[-68.5852,-16.3215],[-68.6071,-16.3358],[-68.6938,-16.3062],[-68.7313,-16.3284],[-68.676,-16.3507],[-68.7279,-16.4216],[-68.9466,-16.4374],[-68.957,-16.4716],[-68.826,-16.4881],[-68.8447,-16.5855],[-68.9203,-16.5975],[-69.0288,-16.5536],[-69.0105,-16.668],[-69.1649,-16.7241],[-69.2194,-16.8369],[-69.394,-17.0223],[-69.3734,-17.0726],[-69.5582,-17.1654],[-69.6447,-17.2812],[-69.5759,-17.2914],[-69.4691,-17.3738],[-69.4661,-17.6034],[-69.3349,-17.7344],[-69.2888,-17.9599],[-69.0847,-18.0533],[-68.9104,-17.9496],[-68.7846,-17.93],[-68.5365,-17.8097],[-68.5329,-17.7028],[-68.436,-17.6676],[-68.3606,-17.5908],[-68.0853,-17.7152],[-67.969,-17.7327],[-67.8077,-17.8732],[-67.7534,-17.8719],[-67.7076,-17.848],[-67.677,-17.7639],[-67.5858,-17.7682],[-67.5863,-17.7119],[-67.5161,-17.6717],[-67.5492,-17.5826],[-67.5054,-17.5182],[-67.4686,-17.5058],[-67.4032,-17.5744],[-67.3745,-17.4618],[-67.2535,-17.324],[-67.194,-17.3486],[-67.1839,-17.4228],[-67.0261,-17.5119],[-67.051,-17.5877],[-67.0068,-17.6319],[-66.8916,-17.5855],[-66.8777,-17.5415],[-66.8157,-17.5116],[-66.8769,-17.4168],[-66.8425,-17.3186],[-66.8878,-17.289],[-66.8839,-17.1566],[-66.9807,-17.0468],[-67.0057,-16.9549],[-66.924,-16.8358],[-66.833,-16.8397],[-66.7412,-16.7552],[-66.7587,-16.6938],[-66.7321,-16.5901],[-66.7888,-16.4845],[-66.8004,-16.2956],[-66.8499,-16.2516],[-66.8443,-16.195],[-66.9205,-16.0914],[-66.9208,-15.9983],[-66.8688,-15.9354],[-66.9074,-15.8442],[-66.8605,-15.7831],[-66.7954,-15.7851],[-66.9069,-15.6402],[-66.8996,-15.6041],[-66.9623,-15.5068],[-67.1183,-15.3933],[-67.0814,-15.3145],[-67.1357,-15.2747],[-67.1909,-15.1383],[-67.2385,-15.1146],[-67.2379,-15.0586],[-67.2903,-15.0271],[-67.335,-15.0448],[-67.4164,-14.9892],[-67.4315,-14.894],[-67.3866,-14.8179],[-67.4164,-14.7448],[-67.5288,-14.6517],[-67.5376,-14.5931],[-67.4816,-14.5036],[-67.5586,-14.4089],[-67.5363,-14.3488],[-67.5622,-14.3439],[-67.517,-14.2941],[-67.4731,-14.2919],[-67.5186,-14.2562],[-67.5343,-14.1921],[-67.5048,-14.1124],[-67.5504,-14.0966],[-67.494,-14.0648],[-67.5484,-14.0316],[-67.5326,-13.9599],[-67.4847,-13.9151],[-67.5118,-13.9062],[-67.4595,-13.846],[-67.5159,-13.8327],[-67.4818,-13.7945],[-67.5252,-13.7832],[-67.4504,-13.7384],[-67.4588,-13.7127],[-67.4266,-13.7345],[-67.4348,-13.6576],[-67.3635,-13.6382],[-67.3882,-13.6035],[-67.3633,-13.609],[-67.3534,-13.5696],[-67.4044,-13.5295],[-67.3478,-13.4715],[-67.3875,-13.4781],[-67.3552,-13.4462],[-67.3959,-13.4377],[-67.3902,-13.3967],[-67.3287,-13.3658],[-67.357,-13.3479],[-67.2941,-13.2725],[-67.2861,-13.3041],[-67.2664,-13.2928],[-67.2954,-13.2505],[-67.2512,-13.2583],[-67.2667,-13.2096],[-67.1979,-13.1953],[-67.2256,-13.1684],[-67.1603,-13.1664],[-67.1874,-13.1258],[-67.1344,-13.0922],[-67.1481,-13.0529],[-67.1064,-13.0685],[-67.096,-13.0255],[-67.0467,-13.0513],[-67.0702,-12.9944],[-66.9981,-12.9166],[-67.0348,-12.8924],[-66.9951,-12.8885],[-66.9902,-12.8512],[-66.9429,-12.826],[-66.9831,-12.8097],[-66.9834,-12.7831],[-66.9478,-12.7903],[-66.9831,-12.7333],[-66.9533,-12.7281],[-66.9713,-12.6903],[-66.9394,-12.685],[-66.9753,-12.6569],[-66.9265,-12.6256],[-66.9769,-12.5927],[-66.9174,-12.5338],[-67.9963,-11.8497]]]]},"properties":{"code":2,"name":"La Paz"}},{"type":"Feature","id":10,"geometry":{"type":"MultiPolygon","coordinates":[[[[-67.5293,-19.8601],[-67.531,-19.8667],[-67.5253,-19.8614],[-67.5293,-19.8601]]],[[[-68.4078,-19.4394],[-68.4101,-19.4263],[-68.416,-19.4323],[-68.4078,-19.4394]]],[[[-68.2908,-19.4235],[-68.3077,-19.4288],[-68.279,-19.4316],[-68.2908,-19.4235]]],[[[-68.3115,-19.425],[-68.3392,-19.4238],[-68.3202,-19.4348],[-68.3115,-19.425]]],[[[-68.4075,-19.4236],[-68.4055,-19.4221],[-68.4068,-19.4197],[-68.4075,-19.4236]]],[[[-68.4021,-19.4193],[-68.403,-19.4158],[-68.4051,-19.4159],[-68.4021,-19.4193]]],[[[-68.3384,-19.411],[-68.3419,-19.4012],[-68.3419,-19.4087],[-68.3384,-19.411]]],[[[-68.4491,-19.3664],[-68.4525,-19.3677],[-68.4497,-19.3704],[-68.4491,-19.3664]]],[[[-68.4056,-19.3052],[-68.4123,-19.3129],[-68.4018,-19.3203],[-68.4056,-19.3052]]],[[[-68.2145,-19.2965],[-68.2306,-19.2971],[-68.2023,-19.3168],[-68.2145,-19.2965]]],[[[-68.2278,-19.2864],[-68.2349,-19.2886],[-68.2275,-19.2883],[-68.2278,-19.2864]]],[[[-68.2296,-19.2668],[-68.2418,-19.2786],[-68.2229,-19.2747],[-68.2296,-19.2668]]],[[[-68.3567,-19.2726],[-68.3629,-19.2462],[-68.4029,-19.3031],[-68.3672,-19.2904],[-68.3632,-19.4045],[-68.3282,-19.4177],[-68.2465,-19.3647],[-68.2417,-19.315],[-68.2667,-19.2548],[-68.3567,-19.2726]]],[[[-67.2482,-17.324],[-67.3745,-17.4618],[-67.4032,-17.5744],[-67.4686,-17.5058],[-67.5054,-17.5182],[-67.5492,-17.5826],[-67.5161,-17.6717],[-67.5863,-17.7119],[-67.5858,-17.7682],[-67.677,-17.7639],[-67.7076,-17.848],[-67.7534,-17.8719],[-67.8077,-17.8732],[-67.969,-17.7327],[-68.0853,-17.7152],[-68.3606,-17.5908],[-68.436,-17.6676],[-68.5329,-17.7028],[-68.5365,-17.8097],[-69.0057,-17.9977],[-69.0725,-18.0382],[-69.1423,-18.1632],[-69.0653,-18.2399],[-69.0749,-18.2917],[-69.038,-18.3227],[-69.0142,-18.6335],[-68.9124,-18.8924],[-68.9665,-18.9466],[-68.889,-19.0438],[-68.8059,-19.0834],[-68.6191,-19.2755],[-68.472,-19.3521],[-68.4699,-19.2959],[-68.374,-19.243],[-68.3551,-19.1977],[-68.2435,-19.1935],[-68.1257,-19.1134],[-68.0911,-19.1495],[-68.0511,-19.0853],[-67.994,-19.19],[-68.008,-19.2955],[-67.9498,-19.2964],[-67.7732,-19.4096],[-67.8282,-19.5289],[-68.0057,-19.5225],[-68.0881,-19.5764],[-67.9595,-19.7294],[-67.8217,-19.8096],[-67.7339,-19.8316],[-67.7145,-19.812],[-67.5713,-19.8867],[-67.5195,-19.8335],[-67.5677,-19.7643],[-67.5623,-19.7152],[-67.3806,-19.713],[-67.291,-19.7652],[-67.2139,-19.6818],[-67.2258,-19.4839],[-67.2677,-19.4286],[-67.1727,-19.4435],[-67.1089,-19.4113],[-67.0808,-19.356],[-67.0437,-19.381],[-66.9522,-19.3696],[-66.8452,-19.4547],[-66.7546,-19.4274],[-66.6998,-19.4484],[-66.5906,-19.4262],[-66.5021,-19.3599],[-66.3903,-19.4576],[-66.3569,-19.4537],[-66.27,-19.2986],[-66.1889,-19.2421],[-66.1301,-19.2456],[-66.0861,-19.0998],[-66.1839,-18.9822],[-66.2817,-19.0148],[-66.3017,-18.9906],[-66.3923,-18.717],[-66.4604,-18.7073],[-66.5025,-18.7881],[-66.537,-18.721],[-66.6346,-18.6474],[-66.7293,-18.3404],[-66.5282,-18.2493],[-66.7577,-18.2274],[-66.7597,-18.1699],[-66.8414,-18.0517],[-66.7379,-17.9397],[-66.7227,-17.8476],[-66.8697,-17.7017],[-66.886,-17.5997],[-67.0104,-17.6294],[-67.051,-17.5877],[-67.0261,-17.5119],[-67.1866,-17.4205],[-67.194,-17.3486],[-67.2482,-17.324]],[[-67.1041,-18.0261],[-67.0468,-18.0779],[-67.0957,-18.1873],[-67.1318,-18.1523],[-67.1362,-18.0743],[-67.1707,-18.0602],[-67.1041,-18.0261]],[[-67.064,-18.4485],[-67.1037,-18.6749],[-67.06,-18.6662],[-67.0044,-18.7136],[-66.9354,-18.9059],[-66.861,-18.9824],[-66.9045,-19.1225],[-67.0086,-19.2002],[-67.0812,-19.0153],[-67.0877,-18.9238],[-67.0626,-18.9038],[-67.2076,-18.8031],[-67.1205,-18.751],[-67.1717,-18.6833],[-67.2664,-18.6329],[-67.2434,-18.5784],[-67.1485,-18.5311],[-67.1135,-18.4556],[-67.064,-18.4485]]]]},"properties":{"code":4,"name":"Oruro"}},{"type":"Feature","id":11,"geometry":{"type":"Polygon","coordinates":[[[-65.3623,-9.7145],[-65.4382,-9.6696],[-65.5009,-9.7311],[-65.5024,-9.7869],[-65.5659,-9.8119],[-65.5595,-9.8458],[-65.6287,-9.839],[-65.6714,-9.7827],[-65.7126,-9.8103],[-65.6873,-9.7503],[-65.7473,-9.784],[-65.7754,-9.7382],[-65.798,-9.7952],[-65.8038,-9.7594],[-65.8655,-9.7989],[-65.8741,-9.7571],[-65.9243,-9.756],[-65.9833,-9.8109],[-66.0709,-9.7881],[-66.093,-9.8186],[-66.102,-9.7876],[-66.1502,-9.7894],[-66.2025,-9.8395],[-66.233,-9.8162],[-66.3494,-9.8388],[-66.4267,-9.8997],[-66.436,-9.8651],[-66.6245,-9.8972],[-66.6391,-9.9522],[-66.6639,-9.9406],[-66.8392,-10.084],[-66.8747,-10.0815],[-66.9543,-10.1885],[-66.997,-10.1987],[-67.0159,-10.2585],[-67.1255,-10.2914],[-67.1694,-10.3371],[-67.3175,-10.3198],[-67.3118,-10.3781],[-67.3518,-10.3956],[-67.4074,-10.3765],[-67.4512,-10.4649],[-67.5653,-10.4974],[-67.6409,-10.6011],[-67.6767,-10.6054],[-67.7092,-10.7099],[-67.8648,-10.6392],[-68.0561,-10.6705],[-68.2367,-10.961],[-68.3852,-11.0202],[-68.4016,-11.0562],[-68.429,-11.0356],[-68.4919,-11.0573],[-68.5547,-11.1161],[-68.7148,-11.1504],[-68.766,-11.0692],[-68.7475,-11.0102],[-68.7888,-11.0151],[-68.7927,-10.9904],[-68.9102,-11.0228],[-68.9526,-10.9902],[-68.9918,-11.0121],[-69.0384,-10.9773],[-69.233,-10.9399],[-69.5748,-10.9469],[-68.9698,-11.9124],[-68.6546,-12.4979],[-68.5586,-12.4543],[-68.5837,-12.3936],[-68.472,-12.4232],[-68.4193,-12.382],[-68.4041,-12.2542],[-68.2929,-12.2246],[-68.2342,-12.1693],[-68.2366,-12.0128],[-68.0983,-12.0348],[-67.9776,-11.9359],[-67.9963,-11.8497],[-66.9673,-12.4903],[-66.9327,-12.4722],[-66.9698,-12.4186],[-66.8973,-12.3692],[-66.9486,-12.305],[-66.8869,-12.2512],[-66.9253,-12.1615],[-66.8731,-12.1063],[-66.9107,-12.0525],[-66.9059,-11.9529],[-66.9791,-11.9],[-66.8567,-11.8226],[-66.8804,-11.7739],[-66.9179,-11.7806],[-66.9105,-11.7471],[-66.8398,-11.7664],[-66.8167,-11.6973],[-66.7719,-11.6966],[-66.7813,-11.745],[-66.7117,-11.6818],[-66.7358,-11.6548],[-66.7128,-11.6105],[-66.7628,-11.5913],[-66.6758,-11.5617],[-66.6959,-11.4972],[-66.734,-11.4842],[-66.7178,-11.4581],[-66.6395,-11.4733],[-66.6374,-11.4255],[-66.5543,-11.4144],[-66.495,-11.441],[-66.4403,-11.3764],[-66.321,-11.3612],[-66.3382,-11.3311],[-66.3109,-11.3158],[-66.2281,-11.3404],[-66.2776,-11.2777],[-66.2514,-11.2661],[-66.267,-11.2172],[-66.1858,-11.1818],[-66.2147,-11.1186],[-66.1938,-11.0749],[-66.1574,-11.1344],[-66.1264,-11.1183],[-66.1439,-11.0461],[-66.0934,-11.0506],[-66.1066,-11.0228],[-66.0579,-10.9866],[-66.0131,-10.8637],[-66.0763,-10.8517],[-65.9758,-10.797],[-65.854,-10.8339],[-65.8518,-10.7844],[-65.9056,-10.7408],[-65.88,-10.6934],[-65.8201,-10.7442],[-65.7335,-10.7069],[-65.7019,-10.6514],[-65.7279,-10.5669],[-65.6333,-10.5636],[-65.5099,-10.4967],[-65.4838,-10.4381],[-65.4032,-10.4104],[-65.3267,-10.3048],[-65.2918,-10.2237],[-65.3351,-9.9359],[-65.2868,-9.8566],[-65.3623,-9.7145]]]},"properties":{"code":9,"name":"Pando"}},{"type":"Feature","id":12,"geometry":{"type":"MultiPolygon","coordinates":[[[[-68.1296,-20.4781],[-68.1347,-20.4843],[-68.1234,-20.4847],[-68.1296,-20.4781]]],[[[-68.0907,-20.44],[-68.0959,-20.4786],[-68.0326,-20.46],[-68.0907,-20.44]]],[[[-67.7627,-20.4176],[-67.7744,-20.4244],[-67.7643,-20.4253],[-67.7627,-20.4176]]],[[[-68.2428,-20.3656],[-68.2548,-20.3751],[-68.243,-20.3893],[-68.2428,-20.3656]]],[[[-68.0425,-20.3647],[-68.0419,-20.3624],[-68.0459,-20.3636],[-68.0425,-20.3647]]],[[[-67.7569,-20.3629],[-67.7721,-20.3996],[-67.7373,-20.3828],[-67.7569,-20.3629]]],[[[-68.0793,-20.3542],[-68.0806,-20.3554],[-68.079,-20.3553],[-68.0793,-20.3542]]],[[[-67.6691,-20.3471],[-67.6826,-20.3587],[-67.663,-20.3619],[-67.6691,-20.3471]]],[[[-67.8589,-20.3105],[-67.8646,-20.3144],[-67.8547,-20.3189],[-67.8589,-20.3105]]],[[[-67.8474,-20.3068],[-67.8549,-20.3114],[-67.8468,-20.3129],[-67.8474,-20.3068]]],[[[-67.826,-20.2866],[-67.8453,-20.3028],[-67.8254,-20.3002],[-67.826,-20.2866]]],[[[-67.8654,-20.2831],[-67.8774,-20.2851],[-67.8683,-20.2945],[-67.8654,-20.2831]]],[[[-68.0453,-20.2838],[-68.0552,-20.3532],[-67.9956,-20.3239],[-67.9934,-20.2902],[-68.02,-20.3391],[-68.0097,-20.313],[-68.031,-20.3299],[-68.0453,-20.2838]]],[[[-68.0567,-20.2786],[-68.0618,-20.2806],[-68.0589,-20.2828],[-68.0567,-20.2786]]],[[[-67.8437,-20.2831],[-67.8385,-20.2722],[-67.8498,-20.2778],[-67.8437,-20.2831]]],[[[-67.8186,-20.2638],[-67.8179,-20.2629],[-67.8193,-20.2629],[-67.8186,-20.2638]]],[[[-67.8434,-20.2653],[-67.8462,-20.2574],[-67.8568,-20.2725],[-67.8434,-20.2653]]],[[[-67.9778,-20.2575],[-67.978,-20.2564],[-67.9799,-20.2573],[-67.9778,-20.2575]]],[[[-68.0642,-20.2566],[-68.0644,-20.2771],[-68.0505,-20.2646],[-68.0642,-20.2566]]],[[[-67.6221,-20.2392],[-67.6277,-20.24],[-67.6262,-20.2458],[-67.6221,-20.2392]]],[[[-67.9782,-20.2379],[-67.9773,-20.2371],[-67.9793,-20.2359],[-67.9782,-20.2379]]],[[[-67.8091,-20.2334],[-67.8084,-20.2312],[-67.8105,-20.2327],[-67.8091,-20.2334]]],[[[-67.8731,-20.2296],[-67.8735,-20.2322],[-67.8724,-20.2315],[-67.8731,-20.2296]]],[[[-67.9745,-20.2308],[-67.9776,-20.2309],[-67.9756,-20.2348],[-67.9745,-20.2308]]],[[[-67.8786,-20.2333],[-67.8756,-20.2289],[-67.8802,-20.2311],[-67.8786,-20.2333]]],[[[-67.9661,-20.2253],[-67.9653,-20.2247],[-67.9665,-20.2245],[-67.9661,-20.2253]]],[[[-67.8106,-20.2184],[-67.8204,-20.221],[-67.8103,-20.2237],[-67.8106,-20.2184]]],[[[-67.8711,-20.226],[-67.8693,-20.2208],[-67.8711,-20.2161],[-67.8711,-20.226]]],[[[-67.9399,-20.2005],[-67.9449,-20.2069],[-67.9358,-20.2129],[-67.9399,-20.2005]]],[[[-67.9386,-20.1868],[-67.9441,-20.1902],[-67.9298,-20.1929],[-67.9386,-20.1868]]],[[[-67.8721,-20.1883],[-67.8872,-20.1813],[-67.8689,-20.1945],[-67.8721,-20.1883]]],[[[-67.9437,-20.1727],[-67.9489,-20.1812],[-67.9418,-20.1803],[-67.9437,-20.1727]]],[[[-67.8076,-20.1546],[-67.802,-20.141],[-67.8098,-20.1316],[-67.8076,-20.1546]]],[[[-67.8074,-20.1206],[-67.8082,-20.1171],[-67.8103,-20.1169],[-67.8074,-20.1206]]],[[[-67.8027,-20.1091],[-67.8021,-20.1076],[-67.8036,-20.1087],[-67.8027,-20.1091]]],[[[-67.8126,-20.108],[-67.8122,-20.1073],[-67.813,-20.107],[-67.8126,-20.108]]],[[[-68.1763,-19.9846],[-68.1779,-19.985],[-68.1754,-19.9847],[-68.1763,-19.9846]]],[[[-68.1978,-19.9877],[-68.1977,-19.9831],[-68.1995,-19.9861],[-68.1978,-19.9877]]],[[[-68.1717,-19.982],[-68.1737,-19.9829],[-68.1704,-19.9853],[-68.1717,-19.982]]],[[[-68.1618,-19.9774],[-68.1662,-19.9802],[-68.1582,-19.9816],[-68.1618,-19.9774]]],[[[-68.1856,-19.971],[-68.2044,-19.9727],[-68.1807,-19.9852],[-68.1856,-19.971]]],[[[-68.2012,-19.9697],[-68.2088,-19.9693],[-68.2071,-19.9725],[-68.2012,-19.9697]]],[[[-67.7708,-19.9685],[-67.7662,-19.9591],[-67.7719,-19.9653],[-67.7708,-19.9685]]],[[[-67.7726,-19.9504],[-67.7719,-19.9493],[-67.7728,-19.9493],[-67.7726,-19.9504]]],[[[-67.7895,-19.9541],[-67.7861,-19.9485],[-67.7899,-19.9531],[-67.7895,-19.9541]]],[[[-67.8112,-19.9482],[-67.8156,-19.9496],[-67.8102,-19.9485],[-67.8112,-19.9482]]],[[[-67.7587,-19.9439],[-67.7587,-19.9429],[-67.7591,-19.9435],[-67.7587,-19.9439]]],[[[-67.758,-19.9416],[-67.7577,-19.9408],[-67.7581,-19.9404],[-67.758,-19.9416]],[[-67.763,-19.946],[-67.7598,-19.9318],[-67.7639,-19.9573],[-67.763,-19.946]]],[[[-67.7838,-19.9459],[-67.7753,-19.9358],[-67.7748,-19.9311],[-67.7838,-19.9459]]],[[[-67.772,-19.9252],[-67.7715,-19.9229],[-67.7727,-19.9241],[-67.772,-19.9252]]],[[[-67.8436,-19.8954],[-67.842,-19.8917],[-67.8447,-19.8947],[-67.8436,-19.8954]]],[[[-67.8281,-19.8675],[-67.8292,-19.8672],[-67.8284,-19.8683],[-67.8281,-19.8675]]],[[[-67.8375,-19.8482],[-67.8372,-19.8475],[-67.8377,-19.8478],[-67.8375,-19.8482]]],[[[-67.8349,-19.8408],[-67.839,-19.8343],[-67.8388,-19.8405],[-67.8349,-19.8408]]],[[[-66.0996,-17.8074],[-66.1799,-17.9334],[-66.4314,-17.9734],[-66.5335,-18.0584],[-66.5234,-18.0895],[-66.6011,-18.0823],[-66.6369,-18.1189],[-66.7852,-18.1357],[-66.7462,-18.241],[-66.5285,-18.2488],[-66.7293,-18.3404],[-66.6442,-18.6303],[-66.6002,-18.696],[-66.537,-18.721],[-66.5218,-18.7823],[-66.4831,-18.7697],[-66.4604,-18.7073],[-66.3923,-18.717],[-66.3017,-18.9906],[-66.2817,-19.0148],[-66.1839,-18.9822],[-66.093,-19.0851],[-66.1301,-19.2456],[-66.1889,-19.2421],[-66.27,-19.2986],[-66.3569,-19.4537],[-66.3903,-19.4576],[-66.5021,-19.3599],[-66.5906,-19.4262],[-66.6998,-19.4484],[-66.7546,-19.4274],[-66.8452,-19.4547],[-66.9522,-19.3696],[-67.0437,-19.381],[-67.0808,-19.356],[-67.1089,-19.4113],[-67.1727,-19.4435],[-67.269,-19.4311],[-67.2258,-19.4839],[-67.2064,-19.6703],[-67.291,-19.7652],[-67.2299,-19.8029],[-67.1822,-19.9068],[-67.1893,-20.0018],[-67.1603,-19.9983],[-67.1389,-20.0526],[-67.1676,-20.1336],[-67.0975,-20.2101],[-67.0185,-20.2382],[-66.9094,-20.3917],[-66.9862,-20.397],[-66.9854,-20.4422],[-67.0191,-20.4355],[-67.0761,-20.4835],[-67.0554,-20.5075],[-67.1065,-20.4837],[-67.0996,-20.5808],[-67.1307,-20.6057],[-67.1038,-20.6341],[-67.1938,-20.6246],[-67.2072,-20.6522],[-67.2564,-20.6193],[-67.3286,-20.7222],[-67.418,-20.6942],[-67.5412,-20.6219],[-67.7262,-20.3853],[-67.7895,-20.5341],[-67.8106,-20.5347],[-67.793,-20.5111],[-67.8625,-20.514],[-67.8386,-20.3461],[-67.9294,-20.2209],[-67.9762,-20.2423],[-68.0377,-20.5398],[-68.2076,-20.5381],[-68.2767,-20.3266],[-68.2317,-20.2821],[-68.2163,-20.1607],[-68.1591,-20.1345],[-68.2219,-20.1047],[-68.1959,-20.0845],[-68.2036,-19.9943],[-68.1872,-20.033],[-68.2331,-19.9302],[-68.0632,-19.7819],[-68.0048,-19.7863],[-67.9645,-19.8293],[-67.9096,-19.7802],[-67.8345,-19.8339],[-67.7997,-19.8198],[-67.7469,-19.9334],[-67.5724,-19.8822],[-67.7145,-19.812],[-67.7339,-19.8316],[-67.8217,-19.8096],[-67.9595,-19.7294],[-68.0881,-19.5764],[-68.167,-19.6143],[-68.2906,-19.5242],[-68.3521,-19.52],[-68.4288,-19.4365],[-68.6967,-19.7525],[-68.5287,-19.8453],[-68.5235,-19.9204],[-68.5662,-20.0501],[-68.7635,-20.0787],[-68.767,-20.144],[-68.7017,-20.1435],[-68.7121,-20.2476],[-68.6614,-20.3229],[-68.7418,-20.3694],[-68.7362,-20.4525],[-68.4292,-20.6421],[-68.5516,-20.7281],[-68.5691,-20.8945],[-68.5035,-20.9429],[-68.4129,-20.9379],[-68.1792,-21.3017],[-68.1806,-21.6041],[-68.0973,-21.7179],[-68.0631,-21.8528],[-68.072,-21.9802],[-67.9652,-22.0541],[-67.9392,-22.1086],[-67.9552,-22.1778],[-67.9208,-22.2426],[-67.9514,-22.3304],[-67.8534,-22.5573],[-67.8896,-22.7058],[-67.8834,-22.8347],[-67.7991,-22.8819],[-67.588,-22.9066],[-67.1805,-22.814],[-67.128,-22.7223],[-67.0139,-22.6544],[-67.0269,-22.5408],[-66.9729,-22.5406],[-66.9285,-22.4924],[-66.7824,-22.4381],[-66.739,-22.2386],[-66.3484,-22.1298],[-66.3247,-22.0872],[-66.2895,-22.087],[-66.2215,-21.7814],[-66.0761,-21.8349],[-66.0481,-21.9189],[-65.9247,-21.9335],[-65.7468,-22.1091],[-65.5746,-22.0763],[-65.194,-22.0857],[-65.185,-22.0131],[-65.3362,-21.9648],[-65.4199,-21.8956],[-65.2934,-21.7317],[-65.3038,-21.6899],[-65.2447,-21.5689],[-65.2493,-21.4823],[-65.3877,-21.5164],[-65.4077,-21.432],[-65.4371,-21.4266],[-65.4418,-21.1811],[-65.4025,-21.1603],[-65.3907,-20.8976],[-65.3388,-20.8387],[-65.3678,-20.7568],[-65.3524,-20.6239],[-65.3882,-20.5573],[-65.2692,-20.503],[-65.2221,-20.321],[-65.3157,-20.2251],[-65.3016,-20.1778],[-65.2326,-20.1405],[-65.305,-20.0094],[-65.2693,-20.0045],[-65.2223,-19.9357],[-65.1521,-20.0147],[-65.078,-19.9956],[-65.0347,-19.7911],[-64.9751,-19.8595],[-64.9163,-19.8564],[-64.8908,-19.9636],[-64.8508,-19.9811],[-64.7144,-19.7796],[-64.787,-19.6332],[-64.8428,-19.5896],[-64.8231,-19.4835],[-64.9128,-19.3547],[-65.1533,-19.3758],[-65.3105,-19.3064],[-65.3699,-19.2557],[-65.4071,-19.1431],[-65.546,-19.0815],[-65.5873,-18.9977],[-65.4808,-18.926],[-65.4138,-18.9454],[-65.3977,-18.9191],[-65.4438,-18.8334],[-65.4059,-18.7749],[-65.4191,-18.6632],[-65.3813,-18.6409],[-65.4862,-18.5908],[-65.4958,-18.5356],[-65.6241,-18.501],[-65.6941,-18.3524],[-65.3657,-18.436],[-65.3475,-18.4107],[-65.4394,-18.3651],[-65.5023,-18.2573],[-65.5648,-18.2342],[-65.638,-18.1374],[-65.8451,-17.9742],[-65.934,-17.9921],[-66.0439,-17.8388],[-66.0996,-17.8074]]]]},"properties":{"code":5,"name":"Potosí"}},{"type":"Feature","id":13,"geometry":{"type":"Polygon","coordinates":[[[-60.9893,-13.5008],[-61.0451,-13.4758],[-61.041,-13.507],[-61.0915,-13.4929],[-61.1058,-13.531],[-61.1832,-13.506],[-61.1935,-13.5355],[-61.2252,-13.5302],[-61.2606,-13.4941],[-61.4695,-13.5546],[-61.5279,-13.5298],[-63.5612,-14.2959],[-63.975,-14.7284],[-63.926,-14.7797],[-63.9469,-14.8771],[-63.9178,-15.0327],[-63.9636,-15.069],[-63.9436,-15.16],[-63.8929,-15.1749],[-63.8338,-15.3504],[-63.7775,-15.392],[-63.7933,-15.4291],[-63.6804,-15.4973],[-63.6927,-15.5812],[-63.6566,-15.5787],[-63.642,-15.6245],[-63.5829,-15.634],[-63.574,-15.6653],[-63.5122,-15.6655],[-63.4293,-15.7491],[-63.4442,-15.8248],[-63.3806,-15.8839],[-64.7297,-15.802],[-64.7512,-15.8666],[-64.723,-15.8968],[-64.7459,-15.8912],[-64.7297,-15.9177],[-64.7562,-15.9502],[-64.7268,-15.9512],[-64.74,-15.9816],[-64.7095,-15.9675],[-64.7341,-16.0027],[-64.7015,-16.0116],[-64.7327,-16.0345],[-64.7025,-16.0287],[-64.716,-16.0588],[-64.6901,-16.0808],[-64.7272,-16.0812],[-64.6888,-16.1164],[-64.6634,-16.0971],[-64.6817,-16.1814],[-64.7082,-16.1859],[-64.67,-16.2084],[-64.6928,-16.2931],[-64.6467,-16.2962],[-64.6803,-16.3213],[-64.644,-16.3208],[-64.6735,-16.3651],[-64.7088,-16.3464],[-64.6927,-16.3788],[-64.6563,-16.3748],[-64.6989,-16.4176],[-64.6733,-16.474],[-64.7111,-16.4747],[-64.6879,-16.485],[-64.7112,-16.5363],[-64.7508,-16.5126],[-64.7486,-16.5901],[-64.7905,-16.6312],[-64.758,-16.6789],[-64.7798,-16.6561],[-64.8101,-16.7],[-64.7836,-16.7445],[-64.8318,-16.7251],[-64.8357,-16.7731],[-64.7964,-16.7644],[-64.8166,-16.7715],[-64.7789,-16.805],[-64.7894,-16.8447],[-64.7396,-16.8551],[-64.7704,-16.8731],[-64.737,-16.8681],[-64.7608,-16.8907],[-64.7322,-16.8881],[-64.75,-16.9174],[-64.7203,-16.9264],[-64.7467,-16.9423],[-64.6745,-16.9707],[-64.7074,-17.0016],[-64.629,-17.0049],[-64.6393,-17.0372],[-64.6195,-17.0145],[-64.5927,-17.0538],[-64.5699,-17.0325],[-64.5533,-17.0702],[-64.5188,-17.0568],[-64.5497,-17.0873],[-64.5003,-17.0909],[-64.487,-17.1354],[-64.4354,-17.13],[-64.4284,-17.1594],[-64.3946,-17.1407],[-64.3984,-17.1765],[-64.3573,-17.1871],[-64.3712,-17.2299],[-64.3362,-17.208],[-64.3402,-17.2638],[-64.2838,-17.2647],[-64.2473,-17.302],[-64.2341,-17.3737],[-64.255,-17.4265],[-64.4058,-17.4533],[-64.4323,-17.56],[-64.5198,-17.534],[-64.5502,-17.5658],[-64.6025,-17.5574],[-64.5921,-17.619],[-64.6398,-17.7082],[-64.7562,-17.7501],[-64.8064,-17.8931],[-64.7866,-17.9333],[-64.8106,-17.9447],[-64.6919,-18.0988],[-64.6157,-18.0934],[-64.5222,-18.1604],[-64.4854,-18.2936],[-64.4337,-18.3363],[-64.4276,-18.4181],[-64.3043,-18.4972],[-64.28,-18.5968],[-64.3292,-18.6654],[-64.2901,-18.8231],[-64.2132,-18.8824],[-64.1846,-18.9612],[-64.0685,-19.0053],[-64.0139,-19.1767],[-63.9195,-19.1833],[-63.9017,-19.0317],[-63.7052,-19.0431],[-63.7456,-19.175],[-63.6922,-19.5944],[-63.7323,-20.0272],[-63.6808,-20.2084],[-63.7076,-20.2543],[-63.6672,-20.4732],[-63.5868,-20.4426],[-63.4641,-20.4535],[-63.3571,-20.3925],[-63.3576,-20.4601],[-62.1794,-20.4426],[-61.9224,-20.0892],[-61.7355,-19.6342],[-60.601,-19.4559],[-59.9769,-19.2952],[-59.0996,-19.3494],[-58.1648,-19.8271],[-58.2019,-19.8648],[-58.2131,-19.9514],[-58.1369,-20.1187],[-58.1698,-20.1659],[-57.9569,-20.0226],[-57.9029,-20.0435],[-57.8591,-19.9717],[-58.1314,-19.7584],[-57.7837,-19.0352],[-57.6912,-19.0115],[-57.7187,-18.8984],[-57.7672,-18.9005],[-57.5597,-18.2421],[-57.4544,-18.231],[-57.5797,-18.1201],[-57.7229,-17.8302],[-57.6851,-17.8106],[-57.7835,-17.6393],[-57.7382,-17.5614],[-57.8878,-17.4528],[-57.9971,-17.5154],[-58.0559,-17.4582],[-58.1203,-17.4502],[-58.1228,-17.4143],[-58.1998,-17.3903],[-58.2029,-17.3543],[-58.2552,-17.354],[-58.3974,-17.1864],[-58.4232,-16.9888],[-58.4765,-16.9381],[-58.4787,-16.8228],[-58.4352,-16.5945],[-58.3381,-16.5163],[-58.3562,-16.4267],[-58.3076,-16.3718],[-58.322,-16.266],[-58.389,-16.2628],[-58.4311,-16.3224],[-60.1735,-16.263],[-60.2376,-15.4735],[-60.5749,-15.096],[-60.2444,-15.0953],[-60.2722,-14.6228],[-60.3217,-14.6095],[-60.3395,-14.5095],[-60.3995,-14.412],[-60.3825,-14.3676],[-60.4433,-14.3163],[-60.4821,-14.1824],[-60.4666,-14.0964],[-60.4061,-14.0093],[-60.472,-13.8517],[-60.4606,-13.7993],[-60.5285,-13.7947],[-60.521,-13.7709],[-60.5514,-13.7817],[-60.6209,-13.717],[-60.6563,-13.7353],[-60.6904,-13.6962],[-60.7634,-13.6862],[-60.8803,-13.617],[-60.9187,-13.5425],[-61.0069,-13.5513],[-60.9893,-13.5008]]]},"properties":{"code":7,"name":"Santa Cruz"}},{"type":"Feature","id":14,"geometry":{"type":"Polygon","coordinates":[[[-64.1687,-20.8863],[-64.1976,-20.9574],[-64.1891,-21.0912],[-64.2291,-21.152],[-64.3643,-21.1428],[-64.4571,-21.0831],[-64.5272,-21.0976],[-64.6051,-20.9819],[-64.6989,-20.931],[-64.761,-20.9802],[-64.7978,-21.0947],[-64.8386,-21.1059],[-64.9342,-21.0267],[-65.0271,-21.0276],[-65.07,-20.9589],[-65.1121,-20.982],[-65.1766,-20.9503],[-65.2516,-21.6],[-65.3477,-21.8282],[-65.4166,-21.8824],[-65.4086,-21.9156],[-65.185,-22.0131],[-65.194,-22.0857],[-64.9976,-22.09],[-64.8741,-22.1162],[-64.7364,-22.1931],[-64.6164,-22.204],[-64.5366,-22.2856],[-64.5638,-22.3763],[-64.4129,-22.5381],[-64.4413,-22.6401],[-64.3947,-22.6867],[-64.404,-22.7201],[-64.3423,-22.7423],[-64.3498,-22.8052],[-64.3117,-22.8801],[-64.2651,-22.7628],[-64.2422,-22.5589],[-64.1169,-22.4059],[-63.9352,-22.0037],[-63.7099,-22.0037],[-63.6836,-22.0548],[-63.6671,-22.0035],[-62.8048,-22.0022],[-62.8121,-22.1338],[-62.6439,-22.2466],[-62.2613,-20.9925],[-63.9987,-21.0064],[-64.0064,-20.9467],[-64.1453,-20.9232],[-64.1687,-20.8863]]]},"properties":{"code":6,"name":"Tarija"}}]}
